KUIPER-00293            
1 68593U 26072W   26099.50909527  .00019522  00000+0  56351-3 0  9992
2 68593  51.8633 149.1311 0012054 140.9919 219.1939 15.35620815   813
